start=new Date('2023-06-21T00:00:00.000Z').valueOf();
sats=[{"DECAY_DATE":null,"CLASSIFICATION_TYPE":"U","ECCENTRICITY":"0.00011900","INCLINATION":"53.2152","SITE":"AFETR","MEAN_ELEMENT_THEORY":"SGP4","RCS_SIZE":"LARGE","REV_AT_EPOCH":"3696","REF_FRAME":"TEME","OBJECT_NAME":"STARLINK-5222","OBJECT_ID":"2022-136T","CENTER_NAME":"EARTH","EPHEMERIS_TYPE":"0","ELEMENT_SET_NO":"999","PERIAPSIS":"538.941","APOAPSIS":"540.587","SEMIMAJOR_AXIS":"6917.899","GP_ID":"234395414","NORAD_CAT_ID":"54068","MEAN_ANOMALY":"253.8233","LAUNCH_DATE":"2022-10-20","EPOCH":"2023-06-20T20:43:56.828352","ARG_OF_PERICENTER":"106.2890","MEAN_MOTION":"15.08833828","OBJECT_TYPE":"PAYLOAD","BSTAR":"0.00010477000000","MEAN_MOTION_DOT":"0.00001380","TIME_SYSTEM":"UTC","FILE":"3938544","TLE_LINE1":"1 54068U 22136T   23171.86385218  .00001380  00000-0  10477-3 0  9996","RA_OF_ASC_NODE":"120.8979","COUNTRY_CODE":"US","PERIOD":"95.438","TLE_LINE2":"2 54068  53.2152 120.8979 0001190 106.2890 253.8233 15.08833828 36962","MEAN_MOTION_DDOT":"0.0000000000000"},{"RCS_SIZE":"LARGE","MEAN_ELEMENT_THEORY":"SGP4","OBJECT_NAME":"STARLINK-5223","REF_FRAME":"TEME","REV_AT_EPOCH":"3692","ELEMENT_SET_NO":"999","EPHEMERIS_TYPE":"0","OBJECT_ID":"2022-136U","CENTER_NAME":"EARTH","GP_ID":"234394164","NORAD_CAT_ID":"54069","SEMIMAJOR_AXIS":"6917.879","PERIAPSIS":"538.945","APOAPSIS":"540.542","DECAY_DATE":null,"CLASSIFICATION_TYPE":"U","ECCENTRICITY":"0.00011540","SITE":"AFETR","INCLINATION":"53.2157","FILE":"3938544","TLE_LINE1":"1 54069U 22136U   23171.58414986  .00001546  00000-0  11521-3 0  9996","RA_OF_ASC_NODE":"121.9973","TLE_LINE2":"2 54069  53.2157 121.9973 0001154  80.3332 279.7791 15.08840553 36922","COUNTRY_CODE":"US","PERIOD":"95.438","MEAN_MOTION_DDOT":"0.0000000000000","MEAN_ANOMALY":"279.7791","EPOCH":"2023-06-20T14:01:10.547904","ARG_OF_PERICENTER":"80.3332","LAUNCH_DATE":"2022-10-20","MEAN_MOTION":"15.08840553","TIME_SYSTEM":"UTC","MEAN_MOTION_DOT":"0.00001546","OBJECT_TYPE":"PAYLOAD","BSTAR":"0.00011521000000"},{"MEAN_MOTION_DOT":"0.00001363","TIME_SYSTEM":"UTC","BSTAR":"0.00010371000000","OBJECT_TYPE":"PAYLOAD","MEAN_MOTION":"15.08837941","ARG_OF_PERICENTER":"84.3270","EPOCH":"2023-06-20T14:13:10.252128","LAUNCH_DATE":"2022-10-20","MEAN_ANOMALY":"275.7874","MEAN_MOTION_DDOT":"0.0000000000000","TLE_LINE2":"2 54070  53.2169 122.0507 0001338  84.3270 275.7874 15.08837941 36926","PERIOD":"95.438","COUNTRY_CODE":"US","TLE_LINE1":"1 54070U 22136V   23171.59247977  .00001363  00000-0  10371-3 0  9992","RA_OF_ASC_NODE":"122.0507","FILE":"3938544","SITE":"AFETR","INCLINATION":"53.2169","ECCENTRICITY":"0.00013380","CLASSIFICATION_TYPE":"U","DECAY_DATE":null,"SEMIMAJOR_AXIS":"6917.887","GP_ID":"234394416","NORAD_CAT_ID":"54070","APOAPSIS":"540.677","PERIAPSIS":"538.826","ELEMENT_SET_NO":"999","EPHEMERIS_TYPE":"0","CENTER_NAME":"EARTH","OBJECT_ID":"2022-136V","REF_FRAME":"TEME","OBJECT_NAME":"STARLINK-5181","REV_AT_EPOCH":"3692","RCS_SIZE":"LARGE","MEAN_ELEMENT_THEORY":"SGP4"},{"ECCENTRICITY":"0.00008510","DECAY_DATE":null,"CLASSIFICATION_TYPE":"U","SITE":"AFETR","INCLINATION":"53.2144","REF_FRAME":"TEME","OBJECT_NAME":"STARLINK-5168","REV_AT_EPOCH":"3692","RCS_SIZE":"LARGE","MEAN_ELEMENT_THEORY":"SGP4","GP_ID":"234395165","SEMIMAJOR_AXIS":"6917.896","NORAD_CAT_ID":"54071","PERIAPSIS":"539.173","APOAPSIS":"540.350","EPHEMERIS_TYPE":"0","ELEMENT_SET_NO":"999","OBJECT_ID":"2022-136W","CENTER_NAME":"EARTH","EPOCH":"2023-06-20T14:06:29.191104","ARG_OF_PERICENTER":"84.7917","LAUNCH_DATE":"2022-10-20","MEAN_ANOMALY":"275.3172","TIME_SYSTEM":"UTC","MEAN_MOTION_DOT":"0.00000572","BSTAR":"0.00005399300000","OBJECT_TYPE":"PAYLOAD","MEAN_MOTION":"15.08834794","TLE_LINE2":"2 54071  53.2144 122.0204 0000851  84.7917 275.3172 15.08834794 36925","COUNTRY_CODE":"US","PERIOD":"95.438","FILE":"3938544","RA_OF_ASC_NODE":"122.0204","TLE_LINE1":"1 54071U 22136W   23171.58783786  .00000572  00000-0  53993-4 0  9994","MEAN_MOTION_DDOT":"0.0000000000000"},{"MEAN_MOTION_DDOT":"0.0000000000000","TLE_LINE1":"1 54072U 22136X   23171.59152407  .00000394  00000-0  42844-4 0  9991","RA_OF_ASC_NODE":"122.0460","FILE":"3938544","PERIOD":"95.438","COUNTRY_CODE":"US","TLE_LINE2":"2 54072  53.2161 122.0460 0001436  88.6188 271.4969 15.08835783 36922","MEAN_MOTION":"15.08835783","BSTAR":"0.00004284400000","OBJECT_TYPE":"PAYLOAD","TIME_SYSTEM":"UTC","MEAN_MOTION_DOT":"0.00000394","MEAN_ANOMALY":"271.4969","LAUNCH_DATE":"2022-10-20","ARG_OF_PERICENTER":"88.6188","EPOCH":"2023-06-20T14:11:47.679648","CENTER_NAME":"EARTH","OBJECT_ID":"2022-136X","ELEMENT_SET_NO":"999","EPHEMERIS_TYPE":"0","APOAPSIS":"540.752","PERIAPSIS":"538.765","GP_ID":"234395413","SEMIMAJOR_AXIS":"6917.893","NORAD_CAT_ID":"54072","MEAN_ELEMENT_THEORY":"SGP4","RCS_SIZE":"LARGE","REV_AT_EPOCH":"3692","OBJECT_NAME":"STARLINK-5144","REF_FRAME":"TEME","INCLINATION":"53.2161","SITE":"AFETR","CLASSIFICATION_TYPE":"U","DECAY_DATE":null,"ECCENTRICITY":"0.00014360"},{"MEAN_MOTION_DOT":"0.00001019","TIME_SYSTEM":"UTC","BSTAR":"0.00008211800000","OBJECT_TYPE":"PAYLOAD","MEAN_MOTION":"15.08841385","EPOCH":"2023-06-20T18:45:20.787840","ARG_OF_PERICENTER":"93.0719","LAUNCH_DATE":"2022-10-20","MEAN_ANOMALY":"267.0439","MEAN_MOTION_DDOT":"0.0000000000000","TLE_LINE2":"2 54073  53.2171 116.1173 0001445  93.0719 267.0439 15.08841385 37029","COUNTRY_CODE":"US","PERIOD":"95.437","FILE":"3938544","TLE_LINE1":"1 54073U 22136Y   23171.78149060  .00001019  00000-0  82118-4 0  9997","RA_OF_ASC_NODE":"116.1173","SITE":"AFETR","INCLINATION":"53.2171","ECCENTRICITY":"0.00014450","DECAY_DATE":null,"CLASSIFICATION_TYPE":"U","NORAD_CAT_ID":"54073","GP_ID":"234393665","SEMIMAJOR_AXIS":"6917.876","PERIAPSIS":"538.742","APOAPSIS":"540.741","EPHEMERIS_TYPE":"0","ELEMENT_SET_NO":"999","OBJECT_ID":"2022-136Y","CENTER_NAME":"EARTH","OBJECT_NAME":"STARLINK-5146","REF_FRAME":"TEME","REV_AT_EPOCH":"3702","RCS_SIZE":"LARGE","MEAN_ELEMENT_THEORY":"SGP4"},{"LAUNCH_DATE":"2022-10-20","EPOCH":"2023-06-20T13:55:52.337568","ARG_OF_PERICENTER":"95.1138","MEAN_ANOMALY":"264.9985","OBJECT_TYPE":"PAYLOAD","BSTAR":"0.00009967900000","MEAN_MOTION_DOT":"0.00001299","TIME_SYSTEM":"UTC","MEAN_MOTION":"15.08839642","COUNTRY_CODE":"US","PERIOD":"95.438","TLE_LINE2":"2 54074  53.2165 121.9778 0001147  95.1138 264.9985 15.08839642 36928","FILE":"3938544","RA_OF_ASC_NODE":"121.9778","TLE_LINE1":"1 54074U 22136Z   23171.58046687  .00001299  00000-0  99679-4 0  9997","MEAN_MOTION_DDOT":"0.0000000000000","ECCENTRICITY":"0.00011470","DECAY_DATE":null,"CLASSIFICATION_TYPE":"U","INCLINATION":"53.2165","SITE":"AFETR","REV_AT_EPOCH":"3692","OBJECT_NAME":"STARLINK-5192","REF_FRAME":"TEME","MEAN_ELEMENT_THEORY":"SGP4","RCS_SIZE":"LARGE","PERIAPSIS":"538.953","APOAPSIS":"540.540","NORAD_CAT_ID":"54074","GP_ID":"234394916","SEMIMAJOR_AXIS":"6917.881","OBJECT_ID":"2022-136Z","CENTER_NAME":"EARTH","EPHEMERIS_TYPE":"0","ELEMENT_SET_NO":"999"},{"NORAD_CAT_ID":"54075","GP_ID":"234394666","SEMIMAJOR_AXIS":"6917.919","PERIAPSIS":"538.918","APOAPSIS":"540.650","EPHEMERIS_TYPE":"0","ELEMENT_SET_NO":"999","OBJECT_ID":"2022-136AA","CENTER_NAME":"EARTH","OBJECT_NAME":"STARLINK-5212","REF_FRAME":"TEME","REV_AT_EPOCH":"3699","RCS_SIZE":"LARGE","MEAN_ELEMENT_THEORY":"SGP4","SITE":"AFETR","INCLINATION":"53.2161","ECCENTRICITY":"0.00012520","DECAY_DATE":null,"CLASSIFICATION_TYPE":"U","MEAN_MOTION_DDOT":"0.0000000000000","TLE_LINE2":"2 54075  53.2161 116.9806 0001252  94.0832 266.0303 15.08827325 36996","COUNTRY_CODE":"US","PERIOD":"95.438","FILE":"3938544","TLE_LINE1":"1 54075U 22136AA  23171.57909295  .00002088  00000-0  14926-3 0  9998","RA_OF_ASC_NODE":"116.9806","MEAN_MOTION_DOT":"0.00002088","TIME_SYSTEM":"UTC","OBJECT_TYPE":"PAYLOAD","BSTAR":"0.00014926000000","MEAN_MOTION":"15.08827325","EPOCH":"2023-06-20T13:53:53.630880","ARG_OF_PERICENTER":"94.0832","LAUNCH_DATE":"2022-10-20","MEAN_ANOMALY":"266.0303"},{"INCLINATION":"53.2162","SITE":"AFETR","DECAY_DATE":null,"CLASSIFICATION_TYPE":"U","ECCENTRICITY":"0.00011630","OBJECT_ID":"2022-136AB","CENTER_NAME":"EARTH","EPHEMERIS_TYPE":"0","ELEMENT_SET_NO":"999","PERIAPSIS":"538.955","APOAPSIS":"540.564","SEMIMAJOR_AXIS":"6917.894","GP_ID":"234395415","NORAD_CAT_ID":"54076","MEAN_ELEMENT_THEORY":"SGP4","RCS_SIZE":"LARGE","REV_AT_EPOCH":"3692","OBJECT_NAME":"STARLINK-5201","REF_FRAME":"TEME","MEAN_MOTION":"15.08835520","OBJECT_TYPE":"PAYLOAD","BSTAR":"0.00005362400000","TIME_SYSTEM":"UTC","MEAN_MOTION_DOT":"0.00000566","MEAN_ANOMALY":"264.6365","LAUNCH_DATE":"2022-10-20","ARG_OF_PERICENTER":"95.4760","EPOCH":"2023-06-20T13:50:34.137600","MEAN_MOTION_DDOT":"0.0000000000000","FILE":"3938544","TLE_LINE1":"1 54076U 22136AB  23171.57678400  .00000566  00000-0  53624-4 0  9998","RA_OF_ASC_NODE":"121.9555","COUNTRY_CODE":"US","PERIOD":"95.438","TLE_LINE2":"2 54076  53.2162 121.9555 0001163  95.4760 264.6365 15.08835520 36922"},{"NORAD_CAT_ID":"54077","GP_ID":"234395419","SEMIMAJOR_AXIS":"6917.894","APOAPSIS":"540.566","PERIAPSIS":"538.952","ELEMENT_SET_NO":"999","EPHEMERIS_TYPE":"0","CENTER_NAME":"EARTH","OBJECT_ID":"2022-136AC","OBJECT_NAME":"STARLINK-5171","REF_FRAME":"TEME","REV_AT_EPOCH":"3719","RCS_SIZE":"LARGE","MEAN_ELEMENT_THEORY":"SGP4","SITE":"AFETR","INCLINATION":"53.2178","ECCENTRICITY":"0.00011670","CLASSIFICATION_TYPE":"U","DECAY_DATE":null,"MEAN_MOTION_DDOT":"0.0000000000000","TLE_LINE2":"2 54077  53.2178 102.3289 0001167  99.0435 261.0690 15.08835488 37195","PERIOD":"95.438","COUNTRY_CODE":"US","TLE_LINE1":"1 54077U 22136AC  23171.51607579  .00001189  00000-0  92771-4 0  9990","RA_OF_ASC_NODE":"102.3289","FILE":"3938544","MEAN_MOTION_DOT":"0.00001189","TIME_SYSTEM":"UTC","BSTAR":"0.00009277100000","OBJECT_TYPE":"PAYLOAD","MEAN_MOTION":"15.08835488","EPOCH":"2023-06-20T12:23:08.948256","ARG_OF_PERICENTER":"99.0435","LAUNCH_DATE":"2022-10-20","MEAN_ANOMALY":"261.0690"}];
